HULIANWANG JISHU SHIYAN*
1 57288U 23095A   26200.22636314  .00000030  00000+0  27518-4 0  9995
2 57288  86.5048 353.6832 0019545 101.0839 259.2503 13.39544435148043
HULIANWANG JISHU SHIYAN*
1 57289U 23095B   26200.29252745  .00000033  00000+0  32479-4 0  9990
2 57289  86.5049 353.6698 0018128  99.0332 261.2863 13.39553073148056
HULIANWANG JISHU SHIYAN*
1 58691U 23212A   26200.26134610 -.00000109  00000+0  33593-4 0  9999
2 58691  49.9984 226.2325 0001235 234.2268 125.8495 13.41459258125558
HULIANWANG JISHU SHIYAN*
1 58692U 23212B   26200.32912985 -.00000112  00000+0  28163-4 0  9997
2 58692  49.9953 226.3407 0001389 223.4722 136.6046 13.41460367125568
HULIANWANG JISHU SHIYAN*
1 58693U 23212C   26200.25787125 -.00000109  00000+0  35253-4 0  9990
2 58693  49.9967 226.7291 0001232 212.6388 147.4413 13.41462237125560
HULIANWANG DIGUI-01     
1 62323U 24240A   26200.25741536  .00000041  00000+0  61467-4 0  9993
2 62323  86.5024 332.4189 0002008 104.7235 255.4122 13.24411676 76880
HULIANWANG DIGUI-02     
1 62324U 24240B   26200.26487616  .00000027  00000+0  29469-4 0  9991
2 62324  86.5053 332.5846 0001981 105.2002 254.9351 13.24411586 76890
HULIANWANG DIGUI-03     
1 62325U 24240C   26200.32539329  .00000053  00000+0  90084-4 0  9998
2 62325  86.5006 332.2927 0002037 103.0385 257.0977 13.24410234 76896
HULIANWANG DIGUI-04     
1 62326U 24240D   26200.31785518  .00000055  00000+0  93499-4 0  9996
2 62326  86.5016 332.3390 0002156 102.4361 257.7015 13.24410502 76890
HULIANWANG DIGUI-05     
1 62327U 24240E   26200.31030058  .00000059  00000+0  10221-3 0  9994
2 62327  86.5068 332.6295 0002199  99.8940 260.2442 13.24411144 76890
HULIANWANG DIGUI-06     
1 62328U 24240F   26200.29519863  .00000035  00000+0  48288-4 0  9997
2 62328  86.5005 332.2717 0002163 106.6510 253.4862 13.24408622 76895
HULIANWANG DIGUI-07     
1 62329U 24240G   26200.28762200  .00000020  00000+0  13324-4 0  9999
2 62329  86.4976 332.1037 0002066 104.5648 255.5715 13.24411069 76896
HULIANWANG DIGUI-08     
1 62330U 24240H   26200.30274261  .00000045  00000+0  71813-4 0  9993
2 62330  86.5059 332.5783 0002263  99.8468 260.2922 13.24411407 76897
HULIANWANG DIGUI-09     
1 62331U 24240J   26200.28007318  .00000030  00000+0  34865-4 0  9998
2 62331  86.5025 332.4364 0002018 103.4556 256.6803 13.24410117 76886
HULIANWANG DIGUI-10     
1 62332U 24240K   26200.27252053  .00000021  00000+0  14790-4 0  9991
2 62332  86.5056 332.6012 0002113 105.5241 254.6126 13.24410892 76889
HULIANWANG DIGUI-11     
1 62971U 25030A   26200.26186966 -.00000091  00000+0  71943-4 0  9997
2 62971  50.0004 120.7774 0000922 285.6747  74.4024 13.29324656 70128
