{"fetched_at":"2026-07-19T17:31:36.159Z","source":"https://celestrak.org/NORAD/elements/gp.php?NAME=HULIANWANG&FORMAT=JSON","constellation":"guowang","records":[{"OBJECT_NAME":"HULIANWANG JISHU SHIYAN A","OBJECT_ID":"2023-095A","EPOCH":"2026-07-19T05:25:57.775296","CLASSIFICATION_TYPE":"U","MEAN_MOTION":13.39544435,"ECCENTRICITY":0.00195451,"INCLINATION":86.5048,"RA_OF_ASC_NODE":353.6832,"ARG_OF_PERICENTER":101.0839,"MEAN_ANOMALY":259.2503,"EPHEMERIS_TYPE":0,"NORAD_CAT_ID":57288,"ELEMENT_SET_NO":999,"REV_AT_EPOCH":14804,"BSTAR":0.000027518229,"MEAN_MOTION_DOT":3e-7,"MEAN_MOTION_DDOT":0},{"OBJECT_NAME":"HULIANWANG JISHU SHIYAN B","OBJECT_ID":"2023-095B","EPOCH":"2026-07-19T07:01:14.371680","CLASSIFICATION_TYPE":"U","MEAN_MOTION":13.39553073,"ECCENTRICITY":0.00181289,"INCLINATION":86.5049,"RA_OF_ASC_NODE":353.6698,"ARG_OF_PERICENTER":99.0332,"MEAN_ANOMALY":261.2863,"EPHEMERIS_TYPE":0,"NORAD_CAT_ID":57289,"ELEMENT_SET_NO":999,"REV_AT_EPOCH":14805,"BSTAR":0.000032479077,"MEAN_MOTION_DOT":3.3e-7,"MEAN_MOTION_DDOT":0},{"OBJECT_NAME":"HULIANWANG JISHU SHIYAN 4A","OBJECT_ID":"2023-212A","EPOCH":"2026-07-19T06:16:20.303040","CLASSIFICATION_TYPE":"U","MEAN_MOTION":13.41459258,"ECCENTRICITY":0.00012353,"INCLINATION":49.9984,"RA_OF_ASC_NODE":226.2325,"ARG_OF_PERICENTER":234.2268,"MEAN_ANOMALY":125.8495,"EPHEMERIS_TYPE":0,"NORAD_CAT_ID":58691,"ELEMENT_SET_NO":999,"REV_AT_EPOCH":12555,"BSTAR":0.000033592925,"MEAN_MOTION_DOT":-0.00000109,"MEAN_MOTION_DDOT":0},{"OBJECT_NAME":"HULIANWANG JISHU SHIYAN 4B","OBJECT_ID":"2023-212B","EPOCH":"2026-07-19T07:53:56.819040","CLASSIFICATION_TYPE":"U","MEAN_MOTION":13.41460367,"ECCENTRICITY":0.00013891,"INCLINATION":49.9953,"RA_OF_ASC_NODE":226.3407,"ARG_OF_PERICENTER":223.4722,"MEAN_ANOMALY":136.6046,"EPHEMERIS_TYPE":0,"NORAD_CAT_ID":58692,"ELEMENT_SET_NO":999,"REV_AT_EPOCH":12556,"BSTAR":0.000028162865,"MEAN_MOTION_DOT":-0.00000112,"MEAN_MOTION_DDOT":0},{"OBJECT_NAME":"HULIANWANG JISHU SHIYAN 4C","OBJECT_ID":"2023-212C","EPOCH":"2026-07-19T06:11:20.076000","CLASSIFICATION_TYPE":"U","MEAN_MOTION":13.41462237,"ECCENTRICITY":0.00012322,"INCLINATION":49.9967,"RA_OF_ASC_NODE":226.7291,"ARG_OF_PERICENTER":212.6388,"MEAN_ANOMALY":147.4413,"EPHEMERIS_TYPE":0,"NORAD_CAT_ID":58693,"ELEMENT_SET_NO":999,"REV_AT_EPOCH":12556,"BSTAR":0.000035253373,"MEAN_MOTION_DOT":-0.00000109,"MEAN_MOTION_DDOT":0},{"OBJECT_NAME":"HULIANWANG DIGUI-01","OBJECT_ID":"2024-240A","EPOCH":"2026-07-19T06:10:40.687104","CLASSIFICATION_TYPE":"U","MEAN_MOTION":13.24411676,"ECCENTRICITY":0.00020084,"INCLINATION":86.5024,"RA_OF_ASC_NODE":332.4189,"ARG_OF_PERICENTER":104.7235,"MEAN_ANOMALY":255.4122,"EPHEMERIS_TYPE":0,"NORAD_CAT_ID":62323,"ELEMENT_SET_NO":999,"REV_AT_EPOCH":7688,"BSTAR":0.000061467036,"MEAN_MOTION_DOT":4.1e-7,"MEAN_MOTION_DDOT":0},{"OBJECT_NAME":"HULIANWANG DIGUI-02","OBJECT_ID":"2024-240B","EPOCH":"2026-07-19T06:21:25.300224","CLASSIFICATION_TYPE":"U","MEAN_MOTION":13.24411586,"ECCENTRICITY":0.00019818,"INCLINATION":86.5053,"RA_OF_ASC_NODE":332.5846,"ARG_OF_PERICENTER":105.2002,"MEAN_ANOMALY":254.9351,"EPHEMERIS_TYPE":0,"NORAD_CAT_ID":62324,"ELEMENT_SET_NO":999,"REV_AT_EPOCH":7689,"BSTAR":0.000029468768,"MEAN_MOTION_DOT":2.7e-7,"MEAN_MOTION_DDOT":0},{"OBJECT_NAME":"HULIANWANG DIGUI-03","OBJECT_ID":"2024-240C","EPOCH":"2026-07-19T07:48:33.980256","CLASSIFICATION_TYPE":"U","MEAN_MOTION":13.24410234,"ECCENTRICITY":0.00020376,"INCLINATION":86.5006,"RA_OF_ASC_NODE":332.2927,"ARG_OF_PERICENTER":103.0385,"MEAN_ANOMALY":257.0977,"EPHEMERIS_TYPE":0,"NORAD_CAT_ID":62325,"ELEMENT_SET_NO":999,"REV_AT_EPOCH":7689,"BSTAR":0.000090084416,"MEAN_MOTION_DOT":5.3e-7,"MEAN_MOTION_DDOT":0},{"OBJECT_NAME":"HULIANWANG DIGUI-04","OBJECT_ID":"2024-240D","EPOCH":"2026-07-19T07:37:42.687552","CLASSIFICATION_TYPE":"U","MEAN_MOTION":13.24410502,"ECCENTRICITY":0.00021564,"INCLINATION":86.5016,"RA_OF_ASC_NODE":332.339,"ARG_OF_PERICENTER":102.4361,"MEAN_ANOMALY":257.7015,"EPHEMERIS_TYPE":0,"NORAD_CAT_ID":62326,"ELEMENT_SET_NO":999,"REV_AT_EPOCH":7689,"BSTAR":0.000093498826,"MEAN_MOTION_DOT":5.5e-7,"MEAN_MOTION_DDOT":0},{"OBJECT_NAME":"HULIANWANG DIGUI-05","OBJECT_ID":"2024-240E","EPOCH":"2026-07-19T07:26:49.970112","CLASSIFICATION_TYPE":"U","MEAN_MOTION":13.24411144,"ECCENTRICITY":0.00021992,"INCLINATION":86.5068,"RA_OF_ASC_NODE":332.6295,"ARG_OF_PERICENTER":99.894,"MEAN_ANOMALY":260.2442,"EPHEMERIS_TYPE":0,"NORAD_CAT_ID":62327,"ELEMENT_SET_NO":999,"REV_AT_EPOCH":7689,"BSTAR":0.00010220612,"MEAN_MOTION_DOT":5.9e-7,"MEAN_MOTION_DDOT":0},{"OBJECT_NAME":"HULIANWANG DIGUI-06","OBJECT_ID":"2024-240F","EPOCH":"2026-07-19T07:05:05.161632","CLASSIFICATION_TYPE":"U","MEAN_MOTION":13.24408622,"ECCENTRICITY":0.00021637,"INCLINATION":86.5005,"RA_OF_ASC_NODE":332.2717,"ARG_OF_PERICENTER":106.651,"MEAN_ANOMALY":253.4862,"EPHEMERIS_TYPE":0,"NORAD_CAT_ID":62328,"ELEMENT_SET_NO":999,"REV_AT_EPOCH":7689,"BSTAR":0.000048287737,"MEAN_MOTION_DOT":3.5e-7,"MEAN_MOTION_DDOT":0},{"OBJECT_NAME":"HULIANWANG DIGUI-07","OBJECT_ID":"2024-240G","EPOCH":"2026-07-19T06:54:10.540800","CLASSIFICATION_TYPE":"U","MEAN_MOTION":13.24411069,"ECCENTRICITY":0.0002066,"INCLINATION":86.4976,"RA_OF_ASC_NODE":332.1037,"ARG_OF_PERICENTER":104.5648,"MEAN_ANOMALY":255.5715,"EPHEMERIS_TYPE":0,"NORAD_CAT_ID":62329,"ELEMENT_SET_NO":999,"REV_AT_EPOCH":7689,"BSTAR":0.000013323908,"MEAN_MOTION_DOT":2e-7,"MEAN_MOTION_DDOT":0},{"OBJECT_NAME":"HULIANWANG DIGUI-08","OBJECT_ID":"2024-240H","EPOCH":"2026-07-19T07:15:56.961504","CLASSIFICATION_TYPE":"U","MEAN_MOTION":13.24411407,"ECCENTRICITY":0.00022631,"INCLINATION":86.5059,"RA_OF_ASC_NODE":332.5783,"ARG_OF_PERICENTER":99.8468,"MEAN_ANOMALY":260.2922,"EPHEMERIS_TYPE":0,"NORAD_CAT_ID":62330,"ELEMENT_SET_NO":999,"REV_AT_EPOCH":7689,"BSTAR":0.000071812665,"MEAN_MOTION_DOT":4.5e-7,"MEAN_MOTION_DDOT":0},{"OBJECT_NAME":"HULIANWANG DIGUI-09","OBJECT_ID":"2024-240J","EPOCH":"2026-07-19T06:43:18.322752","CLASSIFICATION_TYPE":"U","MEAN_MOTION":13.24410117,"ECCENTRICITY":0.00020184,"INCLINATION":86.5025,"RA_OF_ASC_NODE":332.4364,"ARG_OF_PERICENTER":103.4556,"MEAN_ANOMALY":256.6803,"EPHEMERIS_TYPE":0,"NORAD_CAT_ID":62331,"ELEMENT_SET_NO":999,"REV_AT_EPOCH":7688,"BSTAR":0.000034864851,"MEAN_MOTION_DOT":3e-7,"MEAN_MOTION_DDOT":0},{"OBJECT_NAME":"HULIANWANG DIGUI-10","OBJECT_ID":"2024-240K","EPOCH":"2026-07-19T06:32:25.773792","CLASSIFICATION_TYPE":"U","MEAN_MOTION":13.24410892,"ECCENTRICITY":0.00021133,"INCLINATION":86.5056,"RA_OF_ASC_NODE":332.6012,"ARG_OF_PERICENTER":105.5241,"MEAN_ANOMALY":254.6126,"EPHEMERIS_TYPE":0,"NORAD_CAT_ID":62332,"ELEMENT_SET_NO":999,"REV_AT_EPOCH":7688,"BSTAR":0.00001479032,"MEAN_MOTION_DOT":2.1e-7,"MEAN_MOTION_DDOT":0},{"OBJECT_NAME":"HULIANWANG DIGUI-11","OBJECT_ID":"2025-030A","EPOCH":"2026-07-19T06:17:05.538624","CLASSIFICATION_TYPE":"U","MEAN_MOTION":13.29324656,"ECCENTRICITY":0.00009226,"INCLINATION":50.0004,"RA_OF_ASC_NODE":120.7774,"ARG_OF_PERICENTER":285.6747,"MEAN_ANOMALY":74.4024,"EPHEMERIS_TYPE":0,"NORAD_CAT_ID":62971,"ELEMENT_SET_NO":999,"REV_AT_EPOCH":7012,"BSTAR":0.000071943023,"MEAN_MOTION_DOT":-9.1e-7,"MEAN_MOTION_DDOT":0}]}
